QIANFAN-60              
1 62790U 25016F   25299.45283828  .00000052  00000+0  62061-4 0  9990
2 62790  88.9722 107.9690 0017313 117.6045 242.6866 13.50972218 40841
QIANFAN-61              
1 62791U 25016G   25299.48559002  .00000060  00000+0  74361-4 0  9999
2 62791  88.9789 108.0963 0016274 116.8278 243.4540 13.50975856 40865
QIANFAN-62              
1 62792U 25016H   25299.48987876  .00000076  00000+0  99331-4 0  9995
2 62792  88.9736 107.9898 0017654 117.3823 242.9127 13.50979438 40852
QIANFAN-63              
1 62793U 25016J   25299.51444918  .00000045  00000+0  51026-4 0  9990
2 62793  88.9743 107.9356 0017629 122.2034 238.0829 13.50972683 40895
QIANFAN-64              
1 62794U 25016K   25299.48150634  .00000059  00000+0  72542-4 0  9997
2 62794  88.9729 107.9195 0015651 115.4971 244.7801 13.50974426 40888
QIANFAN-65              
1 62795U 25016L   25299.47742336  .00000067  00000+0  84464-4 0  9998
2 62795  88.9726 107.9476 0015461 117.0804 243.1926 13.50973422 40864
QIANFAN-66              
1 62796U 25016M   25299.50629490  .00000071  00000+0  91330-4 0  9993
2 62796  88.9745 107.9056 0016628 113.1870 247.1034 13.50977481 40915
QIANFAN-67              
1 62797U 25016N   25299.51034987  .00000062  00000+0  77551-4 0  9995
2 62797  88.9736 107.9353 0016525 119.4148 240.8655 13.50970204 40880
QIANFAN-68              
1 62798U 25016P   25299.50212778  .00000068  00000+0  87124-4 0  9994
2 62798  88.9739 107.9796 0016602 117.8779 242.4056 13.50972539 40867
QIANFAN-69              
1 62799U 25016Q   25299.51864235  .00000049  00000+0  57630-4 0  9995
2 62799  88.9718 107.8575 0017342 118.9183 241.3711 13.50969921 40904
QIANFAN-70              
1 62800U 25016R   25299.46087625  .00000081  00000+0  10690-3 0  9992
2 62800  88.9739 107.9919 0017026 110.1987 250.0997 13.50972603 40856
QIANFAN-71              
1 62801U 25016S   25299.45685096  .00000057  00000+0  69448-4 0  9997
2 62801  88.9733 107.9748 0017198 122.2550 238.0271 13.50973626 40858
QIANFAN-72              
1 62802U 25016T   25299.47331823  .00000072  00000+0  92531-4 0  9992
2 62802  88.9723 107.9911 0020339 129.4208 230.8748 13.50973415 40844
QIANFAN-73              
1 63159U 25046A   25299.50015804  .00000040  00000+0  43087-4 0  9990
2 63159  88.9772 324.9165 0013019 258.7063 101.2625 13.50971884 41033
QIANFAN-74              
1 63160U 25046B   25299.48368205  .00000030  00000+0  28373-4 0  9995
2 63160  88.9773 324.8064 0002109  95.6635 264.4756 13.50973748 41098
QIANFAN-75              
1 63161U 25046C   25299.47120352  .00000113  00000+0  15613-3 0  9998
2 63161  88.9775 325.0407 0014117 262.3377  97.6171 13.50982591 40961
QIANFAN-76              
1 63162U 25046D   25299.46723133 -.00000107  00000+0 -18408-3 0  9994
2 63162  88.9773 325.0218 0011722 262.9194  97.0624 13.50972057 40976
QIANFAN-77              
1 63163U 25046E   25299.52443101  .00000151  00000+0  10041-3 0  9998
2 63163  88.9772 323.4107 0013313 221.4160 138.6008 13.96076922 41869
QIANFAN-78              
1 63164U 25046F   25299.50839561  .00000021  00000+0  13988-4 0  9996
2 63164  88.9773 324.8822 0013041 265.4449  94.5213 13.50974093 41051
QIANFAN-79              
1 63165U 25046G   25299.46301712  .00000027  00000+0  23735-4 0  9991
2 63165  88.9777 324.9927 0012741 263.5420  96.4281 13.50973544 40995
QIANFAN-80              
1 63166U 25046H   25299.47958213  .00000068  00000+0  87603-4 0  9996
2 63166  88.9774 324.6989 0011687 268.5692  91.4120 13.50974767 41156
QIANFAN-81              
1 63167U 25046J   25299.45864169  .00000108  00000+0  14822-3 0  9998
2 63167  88.9774 324.7694 0012780 255.1404 104.8332 13.50989938 41104
QIANFAN-82              
1 63168U 25046K   25299.49194297  .00000074  00000+0  96799-4 0  9997
2 63168  88.9774 324.8097 0010864 264.0669  95.9244 13.50971774 41095
QIANFAN-83              
1 63169U 25046L   25299.45940297  .00000060  00000+0  62003-4 0  9999
2 63169  88.9775 324.6821 0012205 250.0722 109.9120 13.61966164 41162
QIANFAN-84              
1 63170U 25046M   25299.52015433 -.00000019  00000+0 -47854-4 0  9997
2 63170  88.9772 324.9394 0013908 260.2701  99.6879 13.50987685 41020
QIANFAN-85              
1 63171U 25046N   25299.51661175  .00000110  00000+0  15264-3 0  9996
2 63171  88.9773 324.8118 0011216 262.7535  97.2341 13.50975187 41096
QIANFAN-86              
1 63172U 25046P   25299.45081786  .00000138  00000+0  19606-3 0  9998
2 63172  88.9776 324.6797 0009073 267.9060  92.1052 13.50972840 41163
QIANFAN-87              
1 63173U 25046Q   25299.49605741  .00000024  00000+0  18621-4 0  9997
2 63173  88.9772 324.7884 0009754 261.8235  98.1810 13.50969335 41108
QIANFAN-88              
1 63174U 25046R   25299.51253823  .00000084  00000+0  11212-3 0  9995
2 63174  88.9774 324.7401 0010129 271.3782  88.6208 13.50970941 41130
QIANFAN-89              
1 63175U 25046S   25299.47533090  .00000089  00000+0  11931-3 0  9991
2 63175  88.9774 324.9330 0014517 260.8463  99.1046 13.50973072 41021
QIANFAN-90              
1 63176U 25046T   25299.50405608  .00000014  00000+0  27750-5 0  9995
2 63176  88.9775 324.9024 0011474 258.2109 101.7755 13.50973920 41041
